CYGNUS NG-23            
1 65616U 25208A   25353.44148583  .00006778  00000+0  12809-3 0  9996
2 65616  51.6317 109.2912 0003173 271.3280  88.7345 15.49667075   229
DRAGONFLY               
1 65729U 98067XH  25353.59934995  .00144123  00000+0  96899-3 0  9998
2 65729  51.6251 100.5779 0007280 320.5398  39.5070 15.74182800 14248
1998-067XK              
1 65731U 98067XK  25352.60392310  .00090673  00000+0  83588-3 0  9992
2 65731  51.6292 107.4546 0004791 283.3796  76.6665 15.66848038 14061
RSP-03                  
1 65732U 98067XL  25353.42469933  .00106087  00000+0  84699-3 0  9991
2 65732  51.6265 102.4221 0005658 294.5755  65.4652 15.70283101 14217
GHS-01                  
1 65733U 98067XM  25353.72697633  .00188446  00000+0  10728-2 0  9995
2 65733  51.6273  99.1864 0008343 325.0318  35.0134 15.77819432 14285
YOTSUBA-KULOVER         
1 65941U 98067XN  25353.43930380  .00050991  00000+0  61317-3 0  9997
2 65941  51.6289 106.2819 0001753 320.2615  39.8249 15.60329664 10907
BOTAN                   
1 65942U 98067XP  25353.36522579  .00083736  00000+0  85845-3 0  9992
2 65942  51.6281 105.7870 0002892 295.6773  64.3923 15.64228558 10902
E-KAGAKU-1              
1 65943U 98067XQ  25352.35057484  .00070368  00000+0  84620-3 0  9996
2 65943  51.6302 111.7666 0001345 249.8249 110.2600 15.60193795 10732
HTV-X1                  
1 66174U 25241A   25353.44148583  .00006778  00000+0  12809-3 0  9993
2 66174  51.6317 109.2912 0003173 271.3280  88.7345 15.49667075   511
SHENZHOU-22             
1 66645U 25272A   25353.37556208  .00020582  00000+0  25572-3 0  9999
2 66645  41.4684 336.4137 0007729  89.1398 271.0326 15.59465114263571
